PANDORA
1 67395U 80229J   26094.79465278  .00000000  00000-0  37770-3 0    00
2 67395  97.8061  94.5995 0005644  30.1094 271.3220 14.87970262    03
